$$SOE
2460721.500000000, A.D. 2025-Feb-15 00:00:00.0000, 3.827269250942382E+08, -1.363247689098253E+08, 6.429630059486248E+06,
2460728.500000000, A.D. 2025-Feb-22 00:00:00.0000, 3.859492002506870E+08, -1.255429496624016E+08, 6.442583776010431E+06,
2460735.500000000, A.D. 2025-Mar-01 00:00:00.0000, 3.888913327387152E+08, -1.146700514305440E+08, 6.450860371515036E+06,
2460742.500000000, A.D. 2025-Mar-08 00:00:00.0000, 3.915503344503825E+08, -1.037137131696425E+08, 6.454439325835843E+06,
2460749.500000000, A.D. 2025-Mar-15 00:00:00.0000, 3.939234458409852E+08, -9.268168979146938E+07, 6.453304073551662E+06,
2460756.500000000, A.D. 2025-Mar-22 00:00:00.0000, 3.960081393347458E+08, -8.158184402719371E+07, 6.447442309309240E+06,
2460763.500000000, A.D. 2025-Mar-29 00:00:00.0000, 3.978021237931267E+08, -7.042214022793075E+07, 6.436845978461169E+06,
2460770.500000000, A.D. 2025-Apr-05 00:00:00.0000, 3.993033503483035E+08, -5.921063697725065E+07, 6.421511178905629E+06,
2460777.500000000, A.D. 2025-Apr-12 00:00:00.0000, 4.005100176562456E+08, -4.795547842652263E+07, 6.401438158811826E+06,
2460784.500000000, A.D. 2025-Apr-19 00:00:00.0000, 4.014205763636487E+08, -3.666488525151863E+07, 6.376631354929985E+06,
2460791.500000000, A.D. 2025-Apr-26 00:00:00.0000, 4.020337330423779E+08, -2.534714545179117E+07, 6.347099429521363E+06,
2460798.500000000, A.D. 2025-May-03 00:00:00.0000, 4.023484536880800E+08, -1.401060499333749E+07, 6.312855296646410E+06,
2460805.500000000, A.D. 2025-May-10 00:00:00.0000, 4.023639667958984E+08, -2.663658306805741E+06, 6.273916135580032E+06,
2460812.500000000, A.D. 2025-May-17 00:00:00.0000, 4.020797660360022E+08, 8.685261295424176E+06, 6.230303384399701E+06,
2460819.500000000, A.D. 2025-May-24 00:00:00.0000, 4.014956126901127E+08, 2.002769120475401E+07, 6.182042693096754E+06,
2460826.500000000, A.D. 2025-May-31 00:00:00.0000, 4.006115382537215E+08, 3.135514939007762E+07, 6.129163822897183E+06,
2460833.500000000, A.D. 2025-Jun-07 00:00:00.0000, 3.994278467904831E+08, 4.265914574054970E+07, 6.071700626836635E+06,
2460840.500000000, A.D. 2025-Jun-14 00:00:00.0000, 3.979451146684963E+08, 5.393119418719535E+07, 6.009691274494551E+06,
2460847.500000000, A.D. 2025-Jun-21 00:00:00.0000, 3.961641888933185E+08, 6.516282230394720E+07, 5.943178342212949E+06,
2460854.500000000, A.D. 2025-Jun-28 00:00:00.0000, 3.940861871602426E+08, 7.634558012353583E+07, 5.872208625814117E+06,
2460861.500000000, A.D. 2025-Jul-05 00:00:00.0000, 3.917124981050376E+08, 8.747105029738536E+07, 5.796832991215814E+06,
2460868.500000000, A.D. 2025-Jul-12 00:00:00.0000, 3.890447805622208E+08, 9.853085876609743E+07, 5.717106306631871E+06,
2460875.500000000, A.D. 2025-Jul-19 00:00:00.0000, 3.860849620218844E+08, 1.095166853357921E+08, 5.633087392094180E+06,
2460882.500000000, A.D. 2025-Jul-26 00:00:00.0000, 3.828352364963132E+08, 1.204202740735696E+08, 5.544838962357230E+06,
2460889.500000000, A.D. 2025-Aug-02 00:00:00.0000, 3.792980618630835E+08, 1.312334435147892E+08, 5.452427558862038E+06,
2460896.500000000, A.D. 2025-Aug-09 00:00:00.0000, 3.754761567112378E+08, 1.419480966413871E+08, 5.355923467567407E+06,
2460903.500000000, A.D. 2025-Aug-16 00:00:00.0000, 3.713724967752434E+08, 1.525562305446070E+08, 5.255400611013241E+06,
2460910.500000000, A.D. 2025-Aug-23 00:00:00.0000, 3.669903112627332E+08, 1.630499457655762E+08, 5.150936389982127E+06,
2460917.500000000, A.D. 2025-Aug-30 00:00:00.0000, 3.623330794204384E+08, 1.734214560022491E+08, 5.042611503587611E+06,
2460924.500000000, A.D. 2025-Sep-06 00:00:00.0000, 3.574045259334812E+08, 1.836630991576418E+08, 4.930509960236296E+06,
2460931.500000000, A.D. 2025-Sep-13 00:00:00.0000, 3.522086135046986E+08, 1.937673472256154E+08, 4.814719230912343E+06,
2460938.500000000, A.D. 2025-Sep-20 00:00:00.0000, 3.467495359092913E+08, 2.037268133470832E+08, 4.695330110730037E+06,
2460945.500000000, A.D. 2025-Sep-27 00:00:00.0000, 3.410317126006609E+08, 2.135342591240723E+08, 4.572436445983499E+06,
2460952.500000000, A.D. 2025-Oct-04 00:00:00.0000, 3.350597828677697E+08, 2.231826027107586E+08, 4.446134956140354E+06,
2460959.500000000, A.D. 2025-Oct-11 00:00:00.0000, 3.288385991907200E+08, 2.326649267208522E+08, 4.316525108527407E+06,
2460966.500000000, A.D. 2025-Oct-18 00:00:00.0000, 3.223732201002596E+08, 2.419744856603270E+08, 4.183708997710675E+06,
2460973.500000000, A.D. 2025-Oct-25 00:00:00.0000, 3.156689027033783E+08, 2.511047128810146E+08, 4.047791218022272E+06,
2460980.500000000, A.D. 2025-Nov-01 00:00:00.0000, 3.087310949372122E+08, 2.600492270565166E+08, 3.908878727166250E+06,
2460987.500000000, A.D. 2025-Nov-08 00:00:00.0000, 3.015654276086064E+08, 2.688018381370087E+08, 3.767080695415527E+06,
2460994.500000000, A.D. 2025-Nov-15 00:00:00.0000, 2.941777063904065E+08, 2.773565527150819E+08, 3.622508322297022E+06,
2461001.500000000, A.D. 2025-Nov-22 00:00:00.0000, 2.865739042018391E+08, 2.857075790161422E+08, 3.475274602000609E+06,
2461008.500000000, A.D. 2025-Nov-29 00:00:00.0000, 2.787601538452106E+08, 2.938493326421081E+08, 3.325494144276232E+06,
2461015.500000000, A.D. 2025-Dec-06 00:00:00.0000, 2.707427386438180E+08, 3.017764429269307E+08, 3.173283248801783E+06,
2461022.500000000, A.D. 2025-Dec-13 00:00:00.0000, 2.625280815393472E+08, 3.094837565356692E+08, 3.018759918655053E+06,
2461029.500000000, A.D. 2025-Dec-20 00:00:00.0000, 2.541227361727100E+08, 3.169663393327593E+08, 2.862043576364279E+06,
2461036.500000000, A.D. 2025-Dec-27 00:00:00.0000, 2.455333789011242E+08, 3.242194791092212E+08, 2.703254792776927E+06,
2461043.500000000, A.D. 2026-Jan-03 00:00:00.0000, 2.367668003156770E+08, 3.312386885543196E+08, 2.542515112656787E+06,
2461050.500000000, A.D. 2026-Jan-10 00:00:00.0000, 2.278298963927977E+08, 3.380197077967861E+08, 2.379946911929905E+06,
2461057.500000000, A.D. 2026-Jan-17 00:00:00.0000, 2.187296595354840E+08, 3.445585064296591E+08, 2.215673258196443E+06,
2461064.500000000, A.D. 2026-Jan-24 00:00:00.0000, 2.094731696046202E+08, 3.508512850484229E+08, 2.049817769637451E+06,
2461071.500000000, A.D. 2026-Jan-31 00:00:00.0000, 2.000675849852672E+08, 3.568944763034488E+08, 1.882504469980866E+06,
2461078.500000000, A.D. 2026-Feb-07 00:00:00.0000, 1.905201337698714E+08, 3.626847454192275E+08, 1.713857629633054E+06,
2461085.500000000, A.D. 2026-Feb-14 00:00:00.0000, 1.808381053309601E+08, 3.682189901765742E+08, 1.544001568946555E+06,
2461092.500000000, A.D. 2026-Feb-21 00:00:00.0000, 1.710288426902412E+08, 3.734943409480953E+08, 1.373060435563773E+06,
2461099.500000000, A.D. 2026-Feb-28 00:00:00.0000, 1.610997346186014E+08, 3.785081619526041E+08, 1.201158149672776E+06,
2461106.500000000, A.D. 2026-Mar-07 00:00:00.0000, 1.510582054232467E+08, 3.832580517880995E+08, 1.028418547006667E+06,
2461113.500000000, A.D. 2026-Mar-14 00:00:00.0000, 1.409117052102375E+08, 3.877418409269781E+08, 8.549652751349807E+05,
2461120.500000000, A.D. 2026-Mar-21 00:00:00.0000, 1.306677024227158E+08, 3.919575890905378E+08, 6.809215164054632E+05,
2461127.500000000, A.D. 2026-Mar-28 00:00:00.0000, 1.203336766610168E+08, 3.959035835452036E+08, 5.064098058344722E+05,
2461134.500000000, A.D. 2026-Apr-04 00:00:00.0000, 1.099171111933639E+08, 3.995783373681971E+08, 3.315519206116199E+05,
2461141.500000000, A.D. 2026-Apr-11 00:00:00.0000, 9.942548544246876E+07, 4.029805873363255E+08, 1.564687868868709E+05,
2461148.500000000, A.D. 2026-Apr-18 00:00:00.0000, 8.886626761687116E+07, 4.061092914440420E+08, -1.871961107119918E+04,
2461155.500000000, A.D. 2026-Apr-25 00:00:00.0000, 7.824690753967990E+07, 4.089636260787237E+08, -1.938943219432533E+05,
2461162.500000000, A.D. 2026-May-02 00:00:00.0000, 6.757482971017402E+07, 4.115429828391087E+08, -3.689375233505070E+05,
2461169.500000000, A.D. 2026-May-09 00:00:00.0000, 5.685742672729309E+07, 4.138469649490987E+08, -5.437326391107440E+05,
2461176.500000000, A.D. 2026-May-16 00:00:00.0000, 4.610205345812986E+07, 4.158753834253427E+08, -7.181645008385479E+05,
2461183.500000000, A.D. 2026-May-23 00:00:00.0000, 3.531602200933106E+07, 4.176282540412539E+08, -8.921194751850963E+05,
2461190.500000000, A.D. 2026-May-30 00:00:00.0000, 2.450659543001463E+07, 4.191057954240769E+08, -1.065485340396464E+06,
2461197.500000000, A.D. 2026-Jun-06 00:00:00.0000, 1.368097983234937E+07, 4.203084250222641E+08, -1.238151150641233E+06,
2461204.500000000, A.D. 2026-Jun-13 00:00:00.0000, 2.846318594137302E+06, 4.212367531568196E+08, -1.410007407937944E+06,
2461211.500000000, A.D. 2026-Jun-20 00:00:00.0000, -7.990311856576812E+06, 4.218915781008985E+08, -1.580946257160068E+06,
2461218.500000000, A.D. 2026-Jun-27 00:00:00.0000, -1.882190637223872E+07, 4.222738818612323E+08, -1.750861576604307E+06,
2461225.500000000, A.D. 2026-Jul-04 00:00:00.0000, -2.964153553358704E+07, 4.223848258988746E+08, -1.919649027690142E+06,
2461232.500000000, A.D. 2026-Jul-11 00:00:00.0000, -4.044234996313874E+07, 4.222257466705047E+08, -2.087206098143101E+06,
2461239.500000000, A.D. 2026-Jul-18 00:00:00.0000, -5.121758441456669E+07, 4.217981510291333E+08, -2.253432145389587E+06,
2461246.500000000, A.D. 2026-Jul-25 00:00:00.0000, -6.196056161690532E+07, 4.211037114995554E+08, -2.418228442495912E+06,
2461253.500000000, A.D. 2026-Aug-01 00:00:00.0000, -7.266469582937500E+07, 4.201442613924403E+08, -2.581498235279351E+06,
2461260.500000000, A.D. 2026-Aug-08 00:00:00.0000, -8.332349589645366E+07, 4.189217897325650E+08, -2.743146833454430E+06,
2461267.500000000, A.D. 2026-Aug-15 00:00:00.0000, -9.393056739351898E+07, 4.174384364627265E+08, -2.903081737264663E+06,
2461274.500000000, A.D. 2026-Aug-22 00:00:00.0000, -1.044796146299396E+08, 4.156964891566280E+08, -3.061212630290836E+06,
2461281.500000000, A.D. 2026-Aug-29 00:00:00.0000, -1.149644448027441E+08, 4.136983798789009E+08, -3.217451141052544E+06,
2461288.500000000, A.D. 2026-Sep-05 00:00:00.0000, -1.253789721718520E+08, 4.114466793296078E+08, -3.371710803301632E+06,
$$EOE